HST                     
1 20580U 90037B   26194.47969023  .00003777  00000+0  11487-3 0  9993
2 20580  28.4725 260.8360 0002205  88.3061 271.7788 15.31050347792608
POLAR                   
1 23802U 96013A   26194.22503655  .00000225  00000+0  00000+0 0  9991
2 23802  79.8886 226.7431 6496555 208.1823  91.5623  1.29846073145198
SWAS                    
1 25560U 98071A   26194.38630921  .00001664  00000+0  10939-3 0  9998
2 25560  69.8938 159.9492 0008066 232.5585 127.4846 15.09740592501226
CXO                     
1 25867U 99040B   26195.82327180  .00000664  00000+0  00000+0 0  9998
2 25867  56.5906 115.8556 7794608 310.0752   0.4008  0.37803281 17429
XMM-NEWTON              
1 25989U 99066A   26193.28213418  .00000088  00000+0  00000+0 0  9997
2 25989  64.3559 282.6652 4668218  64.4827   0.1151  0.50124873 23131
TERRA                   
1 25994U 99068A   26194.80852102  .00000201  00000+0  49959-4 0  9991
2 25994  97.9442 243.2973 0003358 125.4907  12.2474 14.61123087413497
CLUSTER II-FM7 (SAMBA)  
1 26410U 00041A   26192.68021872  .00012833  00000+0  00000+0 0  9997
2 26410 149.8437  55.3938 9082311 272.8334 359.6328  0.44896530 20420
CLUSTER II-FM8 (TANGO)  
1 26464U 00045B   26193.20008498  .00013279  00000+0  00000+0 0  9993
2 26464 150.0475  56.7154 9087598 274.0139   2.1073  0.44413276 20428
ODIN                    
1 26702U 01007A   26194.66900397  .00252265  24870-4  91002-3 0  9999
2 26702  97.3730 237.5295 0004877 143.9170 216.2432 15.88631636393587
TIMED                   
1 26998U 01055B   26194.36828712  .00000591  00000+0  57207-4 0  9993
2 26998  74.0665 182.3007 0002181 302.6901  57.4073 14.95342403334739
CORIOLIS                
1 27640U 03001A   26194.62151903  .00000053  00000+0  45514-4 0  9992
2 27640  98.7134 201.1031 0014839 133.3650 226.8765 14.19951525217971
SORCE                   
1 27651U 03004A   26194.17261998  .00001531  00000+0  11990-3 0  9995
2 27651  39.9908 113.4042 0018576 240.8928 119.0006 15.03836025275819
MOST                    
1 27843U 03031D   26194.53963691  .00000022  00000+0  29960-4 0  9998
2 27843  98.7052 201.8982 0009974 169.7404 190.3978 14.21327477194455
SCISAT 1                
1 27858U 03036A   26194.83204837  .00000300  00000+0  42997-4 0  9996
2 27858  73.9301 118.4033 0007435 186.7906 173.3171 14.81478095235393
SWIFT                   
1 28485U 04047A   26194.68794126  .00042020  00000+0  31068-3 0  9995
2 28485  20.5531 340.0791 0001911   7.3723 352.6752 15.71044869191032
HINODE (SOLAR-B)        
1 29479U 06041A   26194.62024778  .00000321  00000+0  63565-4 0  9994
2 29479  98.0549 210.3831 0016920 199.5513 160.5045 14.68657101 58752
SHIJIAN-6 02A (SJ-6 02A)
1 29505U 06046A   26194.87024392  .00002593  00000+0  13385-3 0  9995
2 29505  97.6346 236.1398 0004367  65.1699 294.9988 15.17233683 76311
SHIJIAN-6 02B (SJ-6 02B)
1 29506U 06046B   26194.80463113  .00000444  00000+0  39081-4 0  9992
2 29506  97.7152 223.6985 0013561 341.1846  18.8876 15.01435590 74735
FGRST (GLAST)           
1 33053U 08029A   26194.74620500  .00002129  00000+0  71743-4 0  9998
2 33053  25.5829  20.0509 0007750 281.4324  78.5344 15.24071579999892
SDO                     
1 36395U 10005A   26194.20034537 -.00000107  00000+0  00000+0 0  9995
2 36395  34.7041  85.9474 0001955  51.9513 123.0341  1.00277100 60321
CRYOSAT 2               
1 36508U 10013A   26194.82253951  .00000123  00000+0  29702-4 0  9993
2 36508  92.0359 283.7769 0002371  98.4658 261.6818 14.51898054861942
X-SAT                   
1 37389U 11015C   26194.90349600  .00000179  00000+0  93619-4 0  9999
2 37389  98.3519 170.6564 0012715 264.9402  95.0328 14.25214265791487
GCOM-W1 (SHIZUKU)       
1 38337U 12025A   26194.81238590  .00000203  00000+0  55111-4 0  9993
2 38337  98.2023 134.9655 0001329  77.5203 336.8989 14.57089464752910
NUSTAR                  
1 38358U 12031A   26194.91671295  .00000437  00000+0 -25515-4 0  9992
2 38358   6.0247 193.6105 0007124 154.5071  89.4903 15.09038225  1302
NEOSSAT                 
1 39089U 13009D   26194.48126559  .00000062  00000+0  36036-4 0  9993
2 39089  98.4188  13.8901 0011349 162.1759 197.9828 14.35835248700510
BRITE-AUSTRIA           
1 39091U 13009F   26194.74540514  .00000083  00000+0  42755-4 0  9994
2 39091  98.4007  13.5254 0010683 154.7974 205.3736 14.36552149700864
IRIS                    
1 39197U 13033A   26194.56214823  .00000527  00000+0  66604-4 0  9991
2 39197  97.9319  33.7561 0023228 230.6589 129.2568 14.85935056704295
HISAKI (SPRINT-A)       
1 39253U 13049A   26193.97917040  .00000078  00000+0  14580-4 0  9993
2 39253  29.7206  88.8790 0136944 225.9387 132.9837 13.55546585634927
CASSIOPE                
1 39265U 13055A   26194.84212228  .00022176 -52913-6  23784-3 0  9992
2 39265  80.9125  34.2898 0283142 332.4903  26.1575 15.27362633671738
STSAT-3                 
1 39422U 13066G   26194.87912808  .00001297  00000+0  10111-3 0  9996
2 39422  97.6186 164.3366 0008933 310.5536  49.4911 15.02881223688219
SWARM B                 
1 39451U 13067A   26194.84295521  .00002041  00000+0  71887-4 0  9998
2 39451  87.7458 334.2190 0002339  81.6207 278.5307 15.28711643687311
